GLOBALSTAR M070         
1 32264U 07048B   23353.18059597 -.00000082  00000+0  12134-3 0  9990
2 32264  51.9768 351.8101 0000407  15.5852  63.6768 12.62282925745697
GLOBALSTAR M066         
1 32265U 07048C   23352.82206434 -.00000081  00000+0  12460-3 0  9996
2 32265  51.9655 214.9380 0001916  91.0030 349.5396 12.62278502746931
GLOBALSTAR M079         
1 37188U 10054A   23352.34160096 -.00000090  00000+0  78073-4 0  9999
2 37188  52.0059   4.4721 0000325 130.9265 333.1790 12.62270600607391
GLOBALSTAR M074         
1 37189U 10054B   23352.99624191 -.00000095  00000+0  46799-4 0  9997
2 37189  52.0039   1.8865 0000262  65.7637  14.8225 12.62263280608155
GLOBALSTAR M076         
1 37190U 10054C   23353.18032587 -.00000091  00000+0  72562-4 0  9996
2 37190  52.0051   1.4498 0000370 218.6242 217.3916 12.62264450608180
GLOBALSTAR M077         
1 37191U 10054D   23353.08858414 -.00000088  00000+0  89883-4 0  9991
2 37191  52.0088 318.4276 0000470  41.5258  36.9860 12.62267333608925
GLOBALSTAR M067 [+]     
1 32263U 07048A   23352.87548263 -.00000072  00000+0  19090-3 0  9994
2 32263  51.9697 194.4338 0000442 113.3165 350.3978 12.40635942741673
GLOBALSTAR M068 [-]     
1 32266U 07048D   23352.70037442 -.00000095  00000+0  49773-4 0  9998
2 32266  51.9855 168.0591 0001621  64.0297  18.0730 12.62774753748510
